{"type": "FeatureCollection", "features": [ {"type": "Feature", "properties": {"norad_id": 29906, "name": "FENGYUN 1C DEB", "group": "fengyun-1c-debris", "lat": -55.419978175924534, "lon": 95.91622086503166, "alt_km": 753.113540080416, "timestamp": "2025-12-05T22:40:48.822748+00:00", "meta": {"OBJECT_NAME": "FENGYUN 1C DEB", "OBJECT_ID": "1999-025HC", "EPOCH": "2025-12-05T06:22:25.981536", "MEAN_MOTION": 14.49414369, "ECCENTRICITY": 0.00374874, "INCLINATION": 98.7066, "RA_OF_ASC_NODE": 82.371, "ARG_OF_PERICENTER": 171.2187, "MEAN_ANOMALY": 188.967, "EPHEMERIS_TYPE": 0, "CLASSIFICATION_TYPE": "U", "NORAD_CAT_ID": 29906, "ELEMENT_SET_NO": 999, "REV_AT_EPOCH": 98049, "BSTAR": 0.0050036139, "MEAN_MOTION_DOT": 0.00019316, "MEAN_MOTION_DDOT": 0}, "tle": {"line1": "1 29906U 99025HC  25339.26557849  .00019316  00000+0  50036-2 0  9994", "line2": "2 29906  98.7066  82.3710 0037487 171.2187 188.9670 14.49414369980495"}}, "geometry": {"type": "Point", "coordinates": [95.91622086503166, -55.419978175924534]}}, {"type": "Feature", "properties": {"norad_id": 29907, "name": "FENGYUN 1C DEB", "group": "fengyun-1c-debris", "lat": -62.524830008760084, "lon": 64.49261475792888, "alt_km": 807.5362655100162, "timestamp": "2025-12-05T22:40:48.822758+00:00", "meta": {"OBJECT_NAME": "FENGYUN 1C DEB", "OBJECT_ID": "1999-025HD", "EPOCH": "2025-12-05T04:21:28.528416", "MEAN_MOTION": 14.11569512, "ECCENTRICITY": 0.00833694, "INCLINATION": 99.1124, "RA_OF_ASC_NODE": 45.7404, "ARG_OF_PERICENTER": 270.6893, "MEAN_ANOMALY": 107.6069, "EPHEMERIS_TYPE": 0, "CLASSIFICATION_TYPE": "U", "NORAD_CAT_ID": 29907, "ELEMENT_SET_NO": 999, "REV_AT_EPOCH": 96492, "BSTAR": 0.0031956871, "MEAN_MOTION_DOT": 5.953e-05, "MEAN_MOTION_DDOT": 0}, "tle": {"line1": "1 29907U 99025HD  25339.18158019  .00005953  00000+0  31957-2 0  9995", "line2": "2 29907  99.1124  45.7404 0083369 270.6893 107.6069 14.11569512964927"}}, "geometry": {"type": "Point", "coordinates": [64.49261475792888, -62.524830008760084]}}, {"type": "Feature", "properties": {"norad_id": 29909, "name": "FENGYUN 1C DEB", "group": "fengyun-1c-debris", "lat": -63.667913918975565, "lon": -114.35939107719123, "alt_km": 740.8793138973451, "timestamp": "2025-12-05T22:40:48.822769+00:00", "meta": {"OBJECT_NAME": "FENGYUN 1C DEB", "OBJECT_ID": "1999-025HF", "EPOCH": "2025-12-05T05:20:20.023008", "MEAN_MOTION": 14.54918612, "ECCENTRICITY": 0.00385482, "INCLINATION": 98.6359, "RA_OF_ASC_NODE": 82.7771, "ARG_OF_PERICENTER": 39.4148, "MEAN_ANOMALY": 23.4063, "EPHEMERIS_TYPE": 0, "CLASSIFICATION_TYPE": "U", "NORAD_CAT_ID": 29909, "ELEMENT_SET_NO": 999, "REV_AT_EPOCH": 98296, "BSTAR": 0.0040897491, "MEAN_MOTION_DOT": 0.0001775, "MEAN_MOTION_DDOT": 0}, "tle": {"line1": "1 29909U 99025HF  25339.22245397  .00017750  00000+0  40897-2 0  9999", "line2": "2 29909  98.6359  82.7771 0038548  39.4148  23.4063 14.54918612982963"}}, "geometry": {"type": "Point", "coordinates": [-114.35939107719123, -63.667913918975565]}}, {"type": "Feature", "properties": {"norad_id": 29911, "name": "FENGYUN 1C DEB", "group": "fengyun-1c-debris", "lat": -14.863236021680935, "lon": -159.15984481861207, "alt_km": 816.1610336063886, "timestamp": "2025-12-05T22:40:48.822779+00:00", "meta": {"OBJECT_NAME": "FENGYUN 1C DEB", "OBJECT_ID": "1999-025HH", "EPOCH": "2025-12-05T01:44:39.462144", "MEAN_MOTION": 14.18819707, "ECCENTRICITY": 0.00272841, "INCLINATION": 98.7161, "RA_OF_ASC_NODE": 22.3161, "ARG_OF_PERICENTER": 172.182, "MEAN_ANOMALY": 249.4609, "EPHEMERIS_TYPE": 0, "CLASSIFICATION_TYPE": "U", "NORAD_CAT_ID": 29911, "ELEMENT_SET_NO": 999, "REV_AT_EPOCH": 97322, "BSTAR": 0.0015075863, "MEAN_MOTION_DOT": 3.104e-05, "MEAN_MOTION_DDOT": 0}, "tle": {"line1": "1 29911U 99025HH  25339.07267896  .00003104  00000+0  15076-2 0  9992", "line2": "2 29911  98.7161  22.3161 0027284 172.1820 249.4609 14.18819707973228"}}, "geometry": {"type": "Point", "coordinates": [-159.15984481861207, -14.863236021680935]}}, {"type": "Feature", "properties": {"norad_id": 29912, "name": "FENGYUN 1C DEB", "group": "fengyun-1c-debris", "lat": -72.68895428305918, "lon": 106.7962899271375, "alt_km": 735.5408458715829, "timestamp": "2025-12-05T22:40:48.822789+00:00", "meta": {"OBJECT_NAME": "FENGYUN 1C DEB", "OBJECT_ID": "1999-025HJ", "EPOCH": "2025-12-04T05:40:03.532800", "MEAN_MOTION": 14.42778616, "ECCENTRICITY": 0.0042521, "INCLINATION": 98.7398, "RA_OF_ASC_NODE": 75.4699, "ARG_OF_PERICENTER": 243.458, "MEAN_ANOMALY": 170.3151, "EPHEMERIS_TYPE": 0, "CLASSIFICATION_TYPE": "U", "NORAD_CAT_ID": 29912, "ELEMENT_SET_NO": 999, "REV_AT_EPOCH": 97916, "BSTAR": 0.0056052, "MEAN_MOTION_DOT": 0.00018892, "MEAN_MOTION_DDOT": 0}, "tle": {"line1": "1 29912U 99025HJ  25338.23615200  .00018892  00000+0  56052-2 0  9995", "line2": "2 29912  98.7398  75.4699 0042521 243.4580 170.3151 14.42778616979165"}}, "geometry": {"type": "Point", "coordinates": [106.7962899271375, -72.68895428305918]}}, {"type": "Feature", "properties": {"norad_id": 29913, "name": "FENGYUN 1C DEB", "group": "fengyun-1c-debris", "lat": -1.675798837743099, "lon": 158.72414037856524, "alt_km": 886.1244011240606, "timestamp": "2025-12-05T22:40:48.822799+00:00", "meta": {"OBJECT_NAME": "FENGYUN 1C DEB", "OBJECT_ID": "1999-025HK", "EPOCH": "2025-12-04T23:53:51.908352", "MEAN_MOTION": 14.07369071, "ECCENTRICITY": 0.00619898, "INCLINATION": 98.7874, "RA_OF_ASC_NODE": 338.0604, "ARG_OF_PERICENTER": 293.5902, "MEAN_ANOMALY": 121.8255, "EPHEMERIS_TYPE": 0, "CLASSIFICATION_TYPE": "U", "NORAD_CAT_ID": 29913, "ELEMENT_SET_NO": 999, "REV_AT_EPOCH": 96856, "BSTAR": 0.00060086582, "MEAN_MOTION_DOT": 9.84e-06, "MEAN_MOTION_DDOT": 0}, "tle": {"line1": "1 29913U 99025HK  25338.99573968  .00000984  00000+0  60087-3 0  9990", "line2": "2 29913  98.7874 338.0604 0061989 293.5902 121.8255 14.07369071968562"}}, "geometry": {"type": "Point", "coordinates": [158.72414037856524, -1.675798837743099]}}, {"type": "Feature", "properties": {"norad_id": 29914, "name": "FENGYUN 1C DEB", "group": "fengyun-1c-debris", "lat": 64.33881806379198, "lon": -10.198581405015364, "alt_km": 866.7039169922946, "timestamp": "2025-12-05T22:40:48.822810+00:00", "meta": {"OBJECT_NAME": "FENGYUN 1C DEB", "OBJECT_ID": "1999-025HL", "EPOCH": "2025-12-05T02:07:32.434176", "MEAN_MOTION": 14.03127382, "ECCENTRICITY": 0.00362971, "INCLINATION": 98.8455, "RA_OF_ASC_NODE": 7.8815, "ARG_OF_PERICENTER": 136.2359, "MEAN_ANOMALY": 286.2982, "EPHEMERIS_TYPE": 0, "CLASSIFICATION_TYPE": "U", "NORAD_CAT_ID": 29914, "ELEMENT_SET_NO": 999, "REV_AT_EPOCH": 96679, "BSTAR": 0.00038225855, "MEAN_MOTION_DOT": 5.56e-06, "MEAN_MOTION_DDOT": 0}, "tle": {"line1": "1 29914U 99025HL  25339.08856984  .00000556  00000+0  38226-3 0  9999", "line2": "2 29914  98.8455   7.8815 0036297 136.2359 286.2982 14.03127382966796"}}, "geometry": {"type": "Point", "coordinates": [-10.198581405015364, 64.33881806379198]}}, {"type": "Feature", "properties": {"norad_id": 29916, "name": "FENGYUN 1C DEB", "group": "fengyun-1c-debris", "lat": 65.08505103239992, "lon": -159.96314320978152, "alt_km": 1232.0003810193157, "timestamp": "2025-12-05T22:40:48.822819+00:00", "meta": {"OBJECT_NAME": "FENGYUN 1C DEB", "OBJECT_ID": "1999-025HN", "EPOCH": "2025-12-04T07:47:41.062848", "MEAN_MOTION": 13.56968857, "ECCENTRICITY": 0.0271037, "INCLINATION": 99.1953, "RA_OF_ASC_NODE": 358.1125, "ARG_OF_PERICENTER": 280.0767, "MEAN_ANOMALY": 203.2522, "EPHEMERIS_TYPE": 0, "CLASSIFICATION_TYPE": "U", "NORAD_CAT_ID": 29916, "ELEMENT_SET_NO": 999, "REV_AT_EPOCH": 93338, "BSTAR": 0.0011133, "MEAN_MOTION_DOT": 9.61e-06, "MEAN_MOTION_DDOT": 0}, "tle": {"line1": "1 29916U 99025HN  25338.32478082  .00000961  00000+0  11133-2 0  9993", "line2": "2 29916  99.1953 358.1125 0271037 280.0767 203.2522 13.56968857933380"}}, "geometry": {"type": "Point", "coordinates": [-159.96314320978152, 65.08505103239992]}}, {"type": "Feature", "properties": {"norad_id": 29917, "name": "FENGYUN 1C DEB", "group": "fengyun-1c-debris", "lat": -58.49945164483527, "lon": 7.323694346601333, "alt_km": 1022.1209480996822, "timestamp": "2025-12-05T22:40:48.822830+00:00", "meta": {"OBJECT_NAME": "FENGYUN 1C DEB", "OBJECT_ID": "1999-025HP", "EPOCH": "2025-12-05T04:37:49.884672", "MEAN_MOTION": 13.70386315, "ECCENTRICITY": 0.0222538, "INCLINATION": 98.8764, "RA_OF_ASC_NODE": 201.4026, "ARG_OF_PERICENTER": 144.4038, "MEAN_ANOMALY": 344.3734, "EPHEMERIS_TYPE": 0, "CLASSIFICATION_TYPE": "U", "NORAD_CAT_ID": 29917, "ELEMENT_SET_NO": 999, "REV_AT_EPOCH": 94027, "BSTAR": 0.0015013506, "MEAN_MOTION_DOT": 1.543e-05, "MEAN_MOTION_DDOT": 0}, "tle": {"line1": "1 29917U 99025HP  25339.19293848  .00001543  00000+0  15014-2 0  9994", "line2": "2 29917  98.8764 201.4026 0222538 144.4038 344.3734 13.70386315940270"}}, "geometry": {"type": "Point", "coordinates": [7.323694346601333, -58.49945164483527]}}, {"type": "Feature", "properties": {"norad_id": 29918, "name": "FENGYUN 1C DEB", "group": "fengyun-1c-debris", "lat": -37.381090089813384, "lon": 69.06743481365743, "alt_km": 777.6050224368582, "timestamp": "2025-12-05T22:40:48.822840+00:00", "meta": {"OBJECT_NAME": "FENGYUN 1C DEB", "OBJECT_ID": "1999-025HQ", "EPOCH": "2025-12-05T04:34:03.050112", "MEAN_MOTION": 14.335039, "ECCENTRICITY": 0.00127021, "INCLINATION": 98.8559, "RA_OF_ASC_NODE": 61.4543, "ARG_OF_PERICENTER": 340.6656, "MEAN_ANOMALY": 49.0598, "EPHEMERIS_TYPE": 0, "CLASSIFICATION_TYPE": "U", "NORAD_CAT_ID": 29918, "ELEMENT_SET_NO": 999, "REV_AT_EPOCH": 97686, "BSTAR": 0.003268679, "MEAN_MOTION_DOT": 9.009e-05, "MEAN_MOTION_DDOT": 0}, "tle": {"line1": "1 29918U 99025HQ  25339.19031308  .00009009  00000+0  32687-2 0  9996", "line2": "2 29918  98.8559  61.4543 0012702 340.6656  49.0598 14.33503900976869"}}, "geometry": {"type": "Point", "coordinates": [69.06743481365743, -37.381090089813384]}}]}